{
"type": "FeatureCollection",
"name": "sql_statement",
"crs": { "type": "name", "properties": { "name": "urn:ogc:def:crs:EPSG::32718" } },
"features": [
{ "type": "Feature", "properties": { "impedance": 2.0, "id": 8889, "length": 10.171303475584331, "cost": 20.342606951168662, "source": 8698, "target": 8668, "topogeom": "(1,1,9039,2)", "od_flow": 47.8633 }, "geometry": { "type": "LineString", "coordinates": [ [ 652995.925433272612281, 5588006.842455485835671 ], [ 653006.012402313994244, 5588005.535370962694287 ] ] } },
{ "type": "Feature", "properties": { "impedance": 5.0, "id": 10885, "length": 5.4930237400395203, "cost": 27.4651187001976, "source": 9911, "target": 9912, "topogeom": "(1,1,11007,2)", "od_flow": 101.8681 }, "geometry": { "type": "LineString", "coordinates": [ [ 651403.696523077902384, 5588005.397404169663787 ], [ 651402.189501183107495, 5588010.679656986147165 ] ] } },
{ "type": "Feature", "properties": { "impedance": 2.0, "id": 9241, "length": 40.806799957763225, "cost": 81.61359991552645, "source": 7914, "target": 7946, "topogeom": "(1,1,9379,2)", "od_flow": 253.763 }, "geometry": { "type": "LineString", "coordinates": [ [ 653039.614565178751945, 5587748.757003750652075 ], [ 653040.072552622645162, 5587740.419725514017045 ], [ 653038.817050898214802, 5587720.879334188066423 ], [ 653036.193893214687705, 5587708.273092607967556 ] ] } },
{ "type": "Feature", "properties": { "impedance": 2.0, "id": 8839, "length": 4.8292011663379899, "cost": 9.6584023326759798, "source": 49, "target": 8668, "topogeom": "(1,1,8990,2)", "od_flow": 47.8633 }, "geometry": { "type": "LineString", "coordinates": [ [ 653010.801934482995421, 5588004.917661073617637 ], [ 653006.012402313994244, 5588005.535370962694287 ] ] } },
{ "type": "Feature", "properties": { "impedance": 2.0, "id": 10991, "length": 62.115587992425084, "cost": 124.23117598485017, "source": 9724, "target": 9934, "topogeom": "(1,1,11113,2)", "od_flow": 101.8681 }, "geometry": { "type": "LineString", "coordinates": [ [ 652260.099171806476079, 5588053.866338756866753 ], [ 652293.378613096196204, 5588106.314647205173969 ] ] } },
{ "type": "Feature", "properties": { "impedance": 2.0, "id": 11416, "length": 6.6391151545577269, "cost": 13.278230309115454, "source": 8489, "target": 8427, "topogeom": "(1,1,11533,2)", "od_flow": 101.8681 }, "geometry": { "type": "LineString", "coordinates": [ [ 651530.324722076533362, 5588161.388756240718067 ], [ 651528.580058421706781, 5588154.982977695763111 ] ] } },
{ "type": "Feature", "properties": { "impedance": 1.0, "id": 18867, "length": 8.4315367559654639, "cost": 8.4315367559654639, "source": 13118, "target": 13371, "topogeom": "(1,1,18911,2)", "od_flow": 199.7582 }, "geometry": { "type": "LineString", "coordinates": [ [ 653075.173566038371064, 5587896.063707360997796 ], [ 653068.01436368166469, 5587891.609873767010868 ] ] } },
{ "type": "Feature", "properties": { "impedance": 2.0, "id": 8037, "length": 15.30622868852981, "cost": 30.61245737705962, "source": 8152, "target": 7900, "topogeom": "(1,1,8197,2)", "od_flow": 54.0048 }, "geometry": { "type": "LineString", "coordinates": [ [ 652981.909568470320664, 5587916.011186871677637 ], [ 652997.146302142413333, 5587917.468095815740526 ] ] } },
{ "type": "Feature", "properties": { "impedance": 2.0, "id": 8475, "length": 65.983400489033556, "cost": 131.96680097806711, "source": 8428, "target": 8429, "topogeom": "(1,1,8631,2)", "od_flow": 101.8681 }, "geometry": { "type": "LineString", "coordinates": [ [ 651849.830057696904987, 5588192.506371224299073 ], [ 651865.675871454062872, 5588177.945266025140882 ], [ 651875.843478666734882, 5588169.692940237931907 ], [ 651884.596723989001475, 5588157.46011870354414 ], [ 651888.226612191065215, 5588141.54254050180316 ] ] } },
{ "type": "Feature", "properties": { "impedance": 2.0, "id": 9235, "length": 32.67735930416049, "cost": 65.354718608320979, "source": 8956, "target": 8957, "topogeom": "(1,1,9373,2)", "od_flow": 253.763 }, "geometry": { "type": "LineString", "coordinates": [ [ 653024.471719617722556, 5587798.72887120116502 ], [ 653014.291137562482618, 5587829.779886645264924 ] ] } },
{ "type": "Feature", "properties": { "impedance": 1.0, "id": 17725, "length": 63.446546206127806, "cost": 63.446546206127806, "source": 12776, "target": 8458, "topogeom": "(1,1,17776,2)", "od_flow": 101.8681 }, "geometry": { "type": "LineString", "coordinates": [ [ 651746.009252422023565, 5588207.125451497733593 ], [ 651807.879454455338418, 5588221.180426625534892 ] ] } },
{ "type": "Feature", "properties": { "impedance": 1.0, "id": 16342, "length": 3.8718580361944586, "cost": 3.8718580361944586, "source": 11990, "target": 12170, "topogeom": "(1,1,16393,2)", "od_flow": 101.8681 }, "geometry": { "type": "LineString", "coordinates": [ [ 652865.333530154312029, 5588052.909216611646116 ], [ 652868.279152445495129, 5588050.396331025287509 ] ] } },
{ "type": "Feature", "properties": { "impedance": 1.0, "id": 16331, "length": 13.589454270554535, "cost": 13.589454270554535, "source": 8052, "target": 12161, "topogeom": "(1,1,16382,2)", "od_flow": 101.8681 }, "geometry": { "type": "LineString", "coordinates": [ [ 652565.130022459779866, 5588123.787711340934038 ], [ 652578.39431814046111, 5588120.832761685363948 ] ] } },
{ "type": "Feature", "properties": { "impedance": 1.0, "id": 18253, "length": 136.72602506689682, "cost": 136.72602506689682, "source": 8152, "target": 12278, "topogeom": "(1,1,18300,2)", "od_flow": 54.0048 }, "geometry": { "type": "LineString", "coordinates": [ [ 652981.909568470320664, 5587916.011186871677637 ], [ 652932.030153929721564, 5587911.241807374171913 ], [ 652893.673796128365211, 5587922.291105941869318 ], [ 652889.977817220846191, 5587926.229229858145118 ], [ 652891.026511499658227, 5587934.158828608691692 ], [ 652896.126763536129147, 5587967.069472098723054 ] ] } },
{ "type": "Feature", "properties": { "impedance": 1.0, "id": 15468, "length": 7.9368739716277386, "cost": 7.9368739716277386, "source": 11632, "target": 11634, "topogeom": "(1,1,15521,2)", "od_flow": 101.8681 }, "geometry": { "type": "LineString", "coordinates": [ [ 652350.629632658441551, 5588102.676085318438709 ], [ 652343.970708618755452, 5588106.99496238026768 ] ] } },
{ "type": "Feature", "properties": { "impedance": 1.0, "id": 15467, "length": 15.078267074145476, "cost": 15.078267074145476, "source": 11632, "target": 11633, "topogeom": "(1,1,15520,2)", "od_flow": 101.8681 }, "geometry": { "type": "LineString", "coordinates": [ [ 652350.629632658441551, 5588102.676085318438709 ], [ 652363.288700334262103, 5588094.484495513141155 ] ] } },
{ "type": "Feature", "properties": { "impedance": 5.0, "id": 7792, "length": 5.7982257999290407, "cost": 28.991128999645206, "source": 8003, "target": 8004, "topogeom": "(1,1,7954,2)", "od_flow": 101.8681 }, "geometry": { "type": "LineString", "coordinates": [ [ 652534.948496072785929, 5588121.295177489519119 ], [ 652540.681503597879782, 5588122.162384007126093 ] ] } },
{ "type": "Feature", "properties": { "impedance": 2.0, "id": 9247, "length": 17.054257368450429, "cost": 34.108514736900858, "source": 7947, "target": 4, "topogeom": "(1,1,9385,2)", "od_flow": 253.763 }, "geometry": { "type": "LineString", "coordinates": [ [ 653029.164802398299798, 5587691.491019187495112 ], [ 653038.482000054907985, 5587677.206848850473762 ] ] } },
{ "type": "Feature", "properties": { "impedance": 5.0, "id": 8538, "length": 6.7919426727330912, "cost": 33.959713363665458, "source": 8481, "target": 8483, "topogeom": "(1,1,8694,2)", "od_flow": 101.8681 }, "geometry": { "type": "LineString", "coordinates": [ [ 651432.766995219048113, 5588001.646134275011718 ], [ 651431.275168369524181, 5588008.004970267415047 ], [ 651431.22888662177138, 5588008.261279369704425 ] ] } },
{ "type": "Feature", "properties": { "impedance": 1.0, "id": 19045, "length": 24.356088228715439, "cost": 24.356088228715439, "source": 13373, "target": 9023, "topogeom": "(1,1,19090,2)", "od_flow": 199.7582 }, "geometry": { "type": "LineString", "coordinates": [ [ 653050.940086226677522, 5588007.612381377257407 ], [ 653026.770944718271494, 5588010.624296474270523 ] ] } },
{ "type": "Feature", "properties": { "impedance": 1.0, "id": 15987, "length": 10.300003327466158, "cost": 10.300003327466158, "source": 11633, "target": 11910, "topogeom": "(1,1,16038,2)", "od_flow": 101.8681 }, "geometry": { "type": "LineString", "coordinates": [ [ 652363.288700334262103, 5588094.484495513141155 ], [ 652373.316056114039384, 5588096.838684250600636 ] ] } },
{ "type": "Feature", "properties": { "impedance": 5.0, "id": 7850, "length": 9.6131480104031475, "cost": 48.065740052015741, "source": 8049, "target": 8004, "topogeom": "(1,1,8011,2)", "od_flow": 101.8681 }, "geometry": { "type": "LineString", "coordinates": [ [ 652550.185770014417358, 5588123.60513642989099 ], [ 652540.681503597879782, 5588122.162384007126093 ] ] } },
{ "type": "Feature", "properties": { "impedance": 1.0, "id": 22789, "length": 39.180819077999246, "cost": 39.180819077999246, "source": 13040, "target": 12279, "topogeom": "(1,1,22804,2)", "od_flow": 54.0048 }, "geometry": { "type": "LineString", "coordinates": [ [ 652901.652986370958388, 5588010.154090224765241 ], [ 652896.587991981883533, 5587971.302032165229321 ] ] } },
{ "type": "Feature", "properties": { "impedance": 2.0, "id": 8472, "length": 39.388590119393179, "cost": 78.777180238786357, "source": 8423, "target": 8424, "topogeom": "(1,1,8628,2)", "od_flow": 101.8681 }, "geometry": { "type": "LineString", "coordinates": [ [ 651532.421944003552198, 5588134.175627013668418 ], [ 651540.990146749187261, 5588095.730251045897603 ] ] } },
{ "type": "Feature", "properties": { "impedance": 5.0, "id": 11744, "length": 100.1797543003884, "cost": 500.89877150194195, "source": 9722, "target": 9059, "topogeom": "(1,1,11863,2)", "od_flow": 101.8681 }, "geometry": { "type": "LineString", "coordinates": [ [ 652209.806048357742839, 5587991.629578733816743 ], [ 652124.450158695690334, 5588044.073408415541053 ] ] } },
{ "type": "Feature", "properties": { "impedance": 1.0, "id": 16106, "length": 71.283204790684209, "cost": 71.283204790684209, "source": 12035, "target": 12037, "topogeom": "(1,1,16157,2)", "od_flow": 101.8681 }, "geometry": { "type": "LineString", "coordinates": [ [ 652828.749106558738276, 5588081.567197185009718 ], [ 652773.243327335920185, 5588126.293070659972727 ] ] } },
{ "type": "Feature", "properties": { "impedance": 1.0, "id": 16463, "length": 40.738897199806686, "cost": 40.738897199806686, "source": 12074, "target": 12037, "topogeom": "(1,1,16514,2)", "od_flow": 101.8681 }, "geometry": { "type": "LineString", "coordinates": [ [ 652752.611411624005996, 5588091.416229505091906 ], [ 652759.44725222082343, 5588106.681128315627575 ], [ 652766.808673343271948, 5588118.260059265419841 ], [ 652773.243327335920185, 5588126.293070659972727 ] ] } },
{ "type": "Feature", "properties": { "impedance": 5.0, "id": 8563, "length": 7.1652700543272934, "cost": 35.826350271636464, "source": 8482, "target": 8490, "topogeom": "(1,1,8718,2)", "od_flow": 101.8681 }, "geometry": { "type": "LineString", "coordinates": [ [ 651406.433957546949387, 5587996.237908928655088 ], [ 651404.326967678382061, 5588003.086389683187008 ] ] } },
{ "type": "Feature", "properties": { "impedance": 1.0, "id": 17651, "length": 27.618212631110069, "cost": 27.618212631110069, "source": 12765, "target": 8425, "topogeom": "(1,1,17702,2)", "od_flow": 101.8681 }, "geometry": { "type": "LineString", "coordinates": [ [ 651499.27764706639573, 5588086.984896897338331 ], [ 651526.308165977708995, 5588092.652058119885623 ] ] } },
{ "type": "Feature", "properties": { "impedance": 1.0, "id": 16107, "length": 27.608371141254221, "cost": 27.608371141254221, "source": 12035, "target": 12038, "topogeom": "(1,1,16158,2)", "od_flow": 101.8681 }, "geometry": { "type": "LineString", "coordinates": [ [ 652828.749106558738276, 5588081.567197185009718 ], [ 652850.484083138639107, 5588064.543303677812219 ] ] } },
{ "type": "Feature", "properties": { "impedance": 2.0, "id": 8476, "length": 42.183439088645876, "cost": 84.366878177291753, "source": 8428, "target": 8430, "topogeom": "(1,1,8632,2)", "od_flow": 101.8681 }, "geometry": { "type": "LineString", "coordinates": [ [ 651849.830057696904987, 5588192.506371224299073 ], [ 651843.89554146444425, 5588197.976340289227664 ], [ 651832.213839459931478, 5588211.455373957753181 ], [ 651822.475000956561416, 5588224.496078366413713 ] ] } },
{ "type": "Feature", "properties": { "impedance": 2.0, "id": 7702, "length": 8.7051277039680119, "cost": 17.410255407936024, "source": 7912, "target": 7914, "topogeom": "(1,1,7863,2)", "od_flow": 253.763 }, "geometry": { "type": "LineString", "coordinates": [ [ 653039.643253730493598, 5587757.46208418160677 ], [ 653039.614565178751945, 5587748.757003750652075 ] ] } },
{ "type": "Feature", "properties": { "impedance": 1.0, "id": 17741, "length": 26.684904652623274, "cost": 26.684904652623274, "source": 12819, "target": 12820, "topogeom": "(1,1,17792,2)", "od_flow": 101.8681 }, "geometry": { "type": "LineString", "coordinates": [ [ 651419.909277156577446, 5588071.178753070533276 ], [ 651424.275552983395755, 5588044.853484378196299 ] ] } },
{ "type": "Feature", "properties": { "impedance": 1.0, "id": 16153, "length": 26.901180241305607, "cost": 26.901180241305607, "source": 11999, "target": 12074, "topogeom": "(1,1,16204,2)", "od_flow": 101.8681 }, "geometry": { "type": "LineString", "coordinates": [ [ 652744.557827134733088, 5588065.748871338553727 ], [ 652752.611411624005996, 5588091.416229505091906 ] ] } },
{ "type": "Feature", "properties": { "impedance": 1.0, "id": 18356, "length": 31.314360027521072, "cost": 31.314360027521072, "source": 13103, "target": 8698, "topogeom": "(1,1,18405,2)", "od_flow": 47.8633 }, "geometry": { "type": "LineString", "coordinates": [ [ 652964.870713402633555, 5588010.866572498343885 ], [ 652995.925433272612281, 5588006.842455485835671 ] ] } },
{ "type": "Feature", "properties": { "impedance": 2.0, "id": 7427, "length": 17.271485462125067, "cost": 34.542970924250135, "source": 7658, "target": 7674, "topogeom": "(1,1,7590,2)", "od_flow": 101.8681 }, "geometry": { "type": "LineString", "coordinates": [ [ 652308.401322381338105, 5588129.989251612685621 ], [ 652299.149021763587371, 5588115.405042914673686 ] ] } },
{ "type": "Feature", "properties": { "impedance": 1.0, "id": 20783, "length": 9.9402332922061696, "cost": 9.9402332922061696, "source": 9912, "target": 12778, "topogeom": "(1,1,20809,2)", "od_flow": 101.8681 }, "geometry": { "type": "LineString", "coordinates": [ [ 651402.189501183107495, 5588010.679656986147165 ], [ 651399.46237857802771, 5588020.238477007485926 ] ] } },
{ "type": "Feature", "properties": { "impedance": 1.0, "id": 16211, "length": 96.402562669843789, "cost": 96.402562669843789, "source": 12117, "target": 8003, "topogeom": "(1,1,16262,2)", "od_flow": 101.8681 }, "geometry": { "type": "LineString", "coordinates": [ [ 652439.630266619147733, 5588106.876813395880163 ], [ 652534.948496072785929, 5588121.295177489519119 ] ] } },
{ "type": "Feature", "properties": { "impedance": 2.0, "id": 9234, "length": 5.0584470501540038, "cost": 10.116894100308008, "source": 8956, "target": 7915, "topogeom": "(1,1,9372,2)", "od_flow": 253.763 }, "geometry": { "type": "LineString", "coordinates": [ [ 653024.471719617722556, 5587798.72887120116502 ], [ 653025.949832976330072, 5587793.891199503093958 ] ] } },
{ "type": "Feature", "properties": { "impedance": 2.0, "id": 8492, "length": 9.8822756417467286, "cost": 19.764551283493457, "source": 8444, "target": 8445, "topogeom": "(1,1,8648,2)", "od_flow": 101.8681 }, "geometry": { "type": "LineString", "coordinates": [ [ 651624.964498778339475, 5588183.4140590634197 ], [ 651615.26663493225351, 5588181.513846264220774 ] ] } },
{ "type": "Feature", "properties": { "impedance": 2.0, "id": 9238, "length": 15.360879847659749, "cost": 30.721759695319498, "source": 8669, "target": 8958, "topogeom": "(1,1,9376,2)", "od_flow": 199.7582 }, "geometry": { "type": "LineString", "coordinates": [ [ 653005.428317388752475, 5587852.687389041297138 ], [ 653010.741272044251673, 5587855.990071058273315 ], [ 653018.473005612380803, 5587860.798661207780242 ] ] } },
{ "type": "Feature", "properties": { "impedance": 1.0, "id": 23333, "length": 16.466938620963571, "cost": 16.466938620963571, "source": 14743, "target": 12161, "topogeom": "(1,1,23340,2)", "od_flow": 101.8681 }, "geometry": { "type": "LineString", "coordinates": [ [ 652594.466224822914228, 5588117.247530432417989 ], [ 652578.39431814046111, 5588120.832761685363948 ] ] } },
{ "type": "Feature", "properties": { "impedance": 1.0, "id": 17697, "length": 6.0814244047308712, "cost": 6.0814244047308712, "source": 12805, "target": 12806, "topogeom": "(1,1,17748,2)", "od_flow": 101.8681 }, "geometry": { "type": "LineString", "coordinates": [ [ 651328.491248030331917, 5588123.811137554235756 ], [ 651324.203206168254837, 5588119.498780915513635 ] ] } },
{ "type": "Feature", "properties": { "impedance": 2.0, "id": 8534, "length": 41.368752771222198, "cost": 82.737505542444396, "source": 8465, "target": 8478, "topogeom": "(1,1,8690,2)", "od_flow": 101.8681 }, "geometry": { "type": "LineString", "coordinates": [ [ 651610.27125482680276, 5588180.391417920589447 ], [ 651569.999125914066099, 5588170.92942348588258 ] ] } },
{ "type": "Feature", "properties": { "impedance": 2.0, "id": 8557, "length": 40.805424288280442, "cost": 81.610848576560883, "source": 8478, "target": 8489, "topogeom": "(1,1,8712,2)", "od_flow": 101.8681 }, "geometry": { "type": "LineString", "coordinates": [ [ 651569.999125914066099, 5588170.92942348588258 ], [ 651530.324722076533362, 5588161.388756240718067 ] ] } },
{ "type": "Feature", "properties": { "impedance": 2.0, "id": 8533, "length": 5.1199284940827159, "cost": 10.239856988165432, "source": 8465, "target": 8445, "topogeom": "(1,1,8689,2)", "od_flow": 101.8681 }, "geometry": { "type": "LineString", "coordinates": [ [ 651610.27125482680276, 5588180.391417920589447 ], [ 651615.26663493225351, 5588181.513846264220774 ] ] } },
{ "type": "Feature", "properties": { "impedance": 2.0, "id": 7739, "length": 18.255144898500451, "cost": 36.510289797000901, "source": 7946, "target": 7947, "topogeom": "(1,1,7901,2)", "od_flow": 253.763 }, "geometry": { "type": "LineString", "coordinates": [ [ 653036.193893214687705, 5587708.273092607967556 ], [ 653034.836246442398988, 5587703.303391593508422 ], [ 653029.164802398299798, 5587691.491019187495112 ] ] } },
{ "type": "Feature", "properties": { "impedance": 2.0, "id": 9340, "length": 15.008486903726947, "cost": 30.016973807453894, "source": 9023, "target": 8099, "topogeom": "(1,1,9481,2)", "od_flow": 199.7582 }, "geometry": { "type": "LineString", "coordinates": [ [ 653026.770944718271494, 5588010.624296474270523 ], [ 653011.87765642022714, 5588012.480271369218826 ] ] } },
{ "type": "Feature", "properties": { "impedance": 1.0, "id": 17662, "length": 35.383321320174844, "cost": 35.383321320174844, "source": 12761, "target": 12776, "topogeom": "(1,1,17713,2)", "od_flow": 101.8681 }, "geometry": { "type": "LineString", "coordinates": [ [ 651711.22287950955797, 5588200.653381717391312 ], [ 651746.009252422023565, 5588207.125451497733593 ] ] } },
{ "type": "Feature", "properties": { "impedance": 1.0, "id": 16212, "length": 67.069655702644695, "cost": 67.069655702644695, "source": 12117, "target": 11910, "topogeom": "(1,1,16263,2)", "od_flow": 101.8681 }, "geometry": { "type": "LineString", "coordinates": [ [ 652439.630266619147733, 5588106.876813395880163 ], [ 652405.949550352990627, 5588101.784972175955772 ], [ 652373.316056114039384, 5588096.838684250600636 ] ] } },
{ "type": "Feature", "properties": { "impedance": 1.0, "id": 17661, "length": 36.123518237315693, "cost": 36.123518237315693, "source": 12761, "target": 12775, "topogeom": "(1,1,17712,2)", "od_flow": 101.8681 }, "geometry": { "type": "LineString", "coordinates": [ [ 651711.22287950955797, 5588200.653381717391312 ], [ 651675.838679247302935, 5588193.382416056469083 ] ] } },
{ "type": "Feature", "properties": { "impedance": 1.0, "id": 17770, "length": 37.15856366551052, "cost": 37.15856366551052, "source": 45, "target": 12821, "topogeom": "(1,1,17821,2)", "od_flow": 101.8681 }, "geometry": { "type": "LineString", "coordinates": [ [ 651247.790071286610328, 5588104.650614432990551 ], [ 651273.202174596255645, 5588109.803353037685156 ], [ 651284.24951794068329, 5588111.816762717440724 ] ] } },
{ "type": "Feature", "properties": { "impedance": 2.0, "id": 7428, "length": 7.8101162648653855, "cost": 15.620232529730771, "source": 7658, "target": 7675, "topogeom": "(1,1,7591,2)", "od_flow": 101.8681 }, "geometry": { "type": "LineString", "coordinates": [ [ 652308.401322381338105, 5588129.989251612685621 ], [ 652310.63253332907334, 5588128.556809963658452 ], [ 652314.967935884487815, 5588125.761078572832048 ] ] } },
{ "type": "Feature", "properties": { "impedance": 5.0, "id": 12879, "length": 8.2115663754587711, "cost": 41.057831877293857, "source": 10470, "target": 8483, "topogeom": "(1,1,12968,2)", "od_flow": 101.8681 }, "geometry": { "type": "LineString", "coordinates": [ [ 651429.695936989272013, 5588016.328490025363863 ], [ 651431.22888662177138, 5588008.261279369704425 ] ] } },
{ "type": "Feature", "properties": { "impedance": 1.0, "id": 17652, "length": 42.708899639038208, "cost": 42.708899639038208, "source": 12765, "target": 12766, "topogeom": "(1,1,17703,2)", "od_flow": 101.8681 }, "geometry": { "type": "LineString", "coordinates": [ [ 651499.27764706639573, 5588086.984896897338331 ], [ 651457.315618522232398, 5588079.032647603191435 ] ] } },
{ "type": "Feature", "properties": { "impedance": 1.0, "id": 17699, "length": 51.841589284372247, "cost": 51.841589284372247, "source": 12775, "target": 8444, "topogeom": "(1,1,17750,2)", "od_flow": 101.8681 }, "geometry": { "type": "LineString", "coordinates": [ [ 651675.838679247302935, 5588193.382416056469083 ], [ 651624.964498778339475, 5588183.4140590634197 ] ] } },
{ "type": "Feature", "properties": { "impedance": 1.0, "id": 16154, "length": 65.65913642066343, "cost": 65.65913642066343, "source": 11999, "target": 11944, "topogeom": "(1,1,16205,2)", "od_flow": 101.8681 }, "geometry": { "type": "LineString", "coordinates": [ [ 652744.557827134733088, 5588065.748871338553727 ], [ 652683.820615576347336, 5588090.691071073524654 ] ] } },
{ "type": "Feature", "properties": { "impedance": 2.0, "id": 8497, "length": 30.118153788892819, "cost": 60.236307577785638, "source": 8429, "target": 8452, "topogeom": "(1,1,8653,2)", "od_flow": 101.8681 }, "geometry": { "type": "LineString", "coordinates": [ [ 651888.226612191065215, 5588141.54254050180316 ], [ 651894.229487379547209, 5588112.028667880222201 ] ] } },
{ "type": "Feature", "properties": { "impedance": 5.0, "id": 7852, "length": 15.30382530409118, "cost": 76.519126520455899, "source": 8049, "target": 8052, "topogeom": "(1,1,8013,2)", "od_flow": 101.8681 }, "geometry": { "type": "LineString", "coordinates": [ [ 652550.185770014417358, 5588123.60513642989099 ], [ 652558.138123080949299, 5588125.345329714938998 ], [ 652565.130022459779866, 5588123.787711340934038 ] ] } },
{ "type": "Feature", "properties": { "impedance": 2.0, "id": 8838, "length": 7.6387336757720954, "cost": 15.277467351544191, "source": 49, "target": 8099, "topogeom": "(1,1,8989,2)", "od_flow": 199.7582 }, "geometry": { "type": "LineString", "coordinates": [ [ 653010.801934482995421, 5588004.917661073617637 ], [ 653011.87765642022714, 5588012.480271369218826 ] ] } },
{ "type": "Feature", "properties": { "impedance": 2.0, "id": 8479, "length": 21.159062531966253, "cost": 42.318125063932506, "source": 8427, "target": 8423, "topogeom": "(1,1,8635,2)", "od_flow": 101.8681 }, "geometry": { "type": "LineString", "coordinates": [ [ 651528.580058421706781, 5588154.982977695763111 ], [ 651532.421944003552198, 5588134.175627013668418 ] ] } },
{ "type": "Feature", "properties": { "impedance": 2.0, "id": 8842, "length": 66.255118357442171, "cost": 132.51023671488434, "source": 7900, "target": 8669, "topogeom": "(1,1,8993,2)", "od_flow": 54.0048 }, "geometry": { "type": "LineString", "coordinates": [ [ 652997.146302142413333, 5587917.468095815740526 ], [ 652995.656806864310056, 5587903.34010679833591 ], [ 652996.221249526483007, 5587885.773161648772657 ], [ 652998.300342232338153, 5587872.895177969709039 ], [ 653005.428317388752475, 5587852.687389041297138 ] ] } },
{ "type": "Feature", "properties": { "impedance": 5.0, "id": 10452, "length": 15.001568775707993, "cost": 75.007843878539958, "source": 7641, "target": 9723, "topogeom": "(1,1,10577,2)", "od_flow": 101.8681 }, "geometry": { "type": "LineString", "coordinates": [ [ 652217.453182776807807, 5587986.647111980244517 ], [ 652225.489728549495339, 5587999.314432051032782 ] ] } },
{ "type": "Feature", "properties": { "impedance": 5.0, "id": 8537, "length": 26.882666802926099, "cost": 134.41333401463049, "source": 8481, "target": 8482, "topogeom": "(1,1,8693,2)", "od_flow": 101.8681 }, "geometry": { "type": "LineString", "coordinates": [ [ 651432.766995219048113, 5588001.646134275011718 ], [ 651406.433957546949387, 5587996.237908928655088 ] ] } },
{ "type": "Feature", "properties": { "impedance": 2.0, "id": 9236, "length": 24.562232135050341, "cost": 49.124464270100681, "source": 8669, "target": 8957, "topogeom": "(1,1,9374,2)", "od_flow": 253.763 }, "geometry": { "type": "LineString", "coordinates": [ [ 653005.428317388752475, 5587852.687389041297138 ], [ 653014.291137562482618, 5587829.779886645264924 ] ] } },
{ "type": "Feature", "properties": { "impedance": 5.0, "id": 9265, "length": 131.47419557355587, "cost": 657.3709778677794, "source": 8973, "target": 8479, "topogeom": "(1,1,9406,2)", "od_flow": 101.8681 }, "geometry": { "type": "LineString", "coordinates": [ [ 652026.512144887819886, 5588099.608963622711599 ], [ 652010.331625995459035, 5588104.627575972117484 ], [ 651986.524041660362855, 5588107.898917391896248 ], [ 651966.880033723660745, 5588109.199769952334464 ], [ 651949.070707609294914, 5588107.632586948573589 ], [ 651897.149023366509937, 5588097.315533434972167 ] ] } },
{ "type": "Feature", "properties": { "impedance": 1.0, "id": 15476, "length": 4.2379444329987264, "cost": 4.2379444329987264, "source": 11634, "target": 11642, "topogeom": "(1,1,15529,2)", "od_flow": 101.8681 }, "geometry": { "type": "LineString", "coordinates": [ [ 652343.970708618755452, 5588106.99496238026768 ], [ 652340.412990163080394, 5588109.29774600174278 ] ] } },
{ "type": "Feature", "properties": { "impedance": 1.0, "id": 18865, "length": 58.341040260858314, "cost": 58.341040260858314, "source": 8958, "target": 13371, "topogeom": "(1,1,18909,2)", "od_flow": 199.7582 }, "geometry": { "type": "LineString", "coordinates": [ [ 653018.473005612380803, 5587860.798661207780242 ], [ 653068.01436368166469, 5587891.609873767010868 ] ] } },
{ "type": "Feature", "properties": { "impedance": 1.0, "id": 17728, "length": 38.221957481191701, "cost": 38.221957481191701, "source": 12766, "target": 12819, "topogeom": "(1,1,17779,2)", "od_flow": 101.8681 }, "geometry": { "type": "LineString", "coordinates": [ [ 651457.315618522232398, 5588079.032647603191435 ], [ 651419.909277156577446, 5588071.178753070533276 ] ] } },
{ "type": "Feature", "properties": { "impedance": 1.0, "id": 18252, "length": 47.124909512903898, "cost": 47.124909512903898, "source": 13039, "target": 12170, "topogeom": "(1,1,18299,2)", "od_flow": 101.8681 }, "geometry": { "type": "LineString", "coordinates": [ [ 652903.019259642343968, 5588018.554816479794681 ], [ 652868.279152445495129, 5588050.396331025287509 ] ] } },
{ "type": "Feature", "properties": { "impedance": 1.0, "id": 18869, "length": 122.33445211354139, "cost": 122.33445211354139, "source": 13118, "target": 13373, "topogeom": "(1,1,18913,2)", "od_flow": 199.7582 }, "geometry": { "type": "LineString", "coordinates": [ [ 653075.173566038371064, 5587896.063707360997796 ], [ 653051.334415608784184, 5587927.654625144787133 ], [ 653047.777947808615863, 5587933.000264056026936 ], [ 653044.669613330624998, 5587938.070434212684631 ], [ 653042.758972133160569, 5587946.103652884252369 ], [ 653042.678884255001321, 5587953.223014117218554 ], [ 653050.940086226677522, 5588007.612381377257407 ] ] } },
{ "type": "Feature", "properties": { "impedance": 1.0, "id": 18250, "length": 8.5111047616654094, "cost": 8.5111047616654094, "source": 13039, "target": 13040, "topogeom": "(1,1,18297,2)", "od_flow": 54.0048 }, "geometry": { "type": "LineString", "coordinates": [ [ 652903.019259642343968, 5588018.554816479794681 ], [ 652901.652986370958388, 5588010.154090224765241 ] ] } },
{ "type": "Feature", "properties": { "impedance": 1.0, "id": 22917, "length": 29.035424322717958, "cost": 29.035424322717958, "source": 12820, "target": 10470, "topogeom": "(1,1,22932,2)", "od_flow": 101.8681 }, "geometry": { "type": "LineString", "coordinates": [ [ 651424.275552983395755, 5588044.853484378196299 ], [ 651429.695936989272013, 5588016.328490025363863 ] ] } },
{ "type": "Feature", "properties": { "impedance": 1.0, "id": 17698, "length": 27.44404123825089, "cost": 27.44404123825089, "source": 12805, "target": 12779, "topogeom": "(1,1,17749,2)", "od_flow": 101.8681 }, "geometry": { "type": "LineString", "coordinates": [ [ 651328.491248030331917, 5588123.811137554235756 ], [ 651340.794318595551886, 5588131.751380287110806 ], [ 651352.363940379582345, 5588137.229920052923262 ] ] } },
{ "type": "Feature", "properties": { "impedance": 2.0, "id": 11372, "length": 7.1903516877570839, "cost": 14.380703375514168, "source": 10058, "target": 7675, "topogeom": "(1,1,11489,2)", "od_flow": 101.8681 }, "geometry": { "type": "LineString", "coordinates": [ [ 652321.004861158900894, 5588121.855097182095051 ], [ 652314.967935884487815, 5588125.761078572832048 ] ] } },
{ "type": "Feature", "properties": { "impedance": 1.0, "id": 17665, "length": 108.53293224497514, "cost": 108.53293224497514, "source": 12777, "target": 12779, "topogeom": "(1,1,17716,2)", "od_flow": 101.8681 }, "geometry": { "type": "LineString", "coordinates": [ [ 651392.206862328806892, 5588044.166927613317966 ], [ 651365.863785376190208, 5588134.275600978173316 ], [ 651361.530483774957247, 5588137.625937866978347 ], [ 651352.363940379582345, 5588137.229920052923262 ] ] } },
{ "type": "Feature", "properties": { "impedance": 1.0, "id": 16015, "length": 30.619155743292737, "cost": 30.619155743292737, "source": 11942, "target": 11943, "topogeom": "(1,1,16066,2)", "od_flow": 101.8681 }, "geometry": { "type": "LineString", "coordinates": [ [ 652635.526473753037862, 5588107.800357983447611 ], [ 652605.687798560829833, 5588114.669576367363334 ] ] } },
{ "type": "Feature", "properties": { "impedance": 2.0, "id": 10451, "length": 64.604365857116676, "cost": 129.20873171423335, "source": 9723, "target": 9724, "topogeom": "(1,1,10519,2)", "od_flow": 101.8681 }, "geometry": { "type": "LineString", "coordinates": [ [ 652225.489728549495339, 5587999.314432051032782 ], [ 652260.099171806476079, 5588053.866338756866753 ] ] } },
{ "type": "Feature", "properties": { "impedance": 1.0, "id": 18251, "length": 4.6384553593876268, "cost": 4.6384553593876268, "source": 13039, "target": 13041, "topogeom": "(1,1,18298,2)", "od_flow": 47.8633 }, "geometry": { "type": "LineString", "coordinates": [ [ 652903.019259642343968, 5588018.554816479794681 ], [ 652907.621236595558003, 5588017.974233804270625 ] ] } },
{ "type": "Feature", "properties": { "impedance": 1.0, "id": 16343, "length": 18.864200447790274, "cost": 18.864200447790274, "source": 11990, "target": 12038, "topogeom": "(1,1,16394,2)", "od_flow": 101.8681 }, "geometry": { "type": "LineString", "coordinates": [ [ 652865.333530154312029, 5588052.909216611646116 ], [ 652850.484083138639107, 5588064.543303677812219 ] ] } },
{ "type": "Feature", "properties": { "impedance": 1.0, "id": 17664, "length": 25.004264924977321, "cost": 25.004264924977321, "source": 12777, "target": 12778, "topogeom": "(1,1,17715,2)", "od_flow": 101.8681 }, "geometry": { "type": "LineString", "coordinates": [ [ 651392.206862328806892, 5588044.166927613317966 ], [ 651399.46237857802771, 5588020.238477007485926 ] ] } },
{ "type": "Feature", "properties": { "impedance": 5.0, "id": 8535, "length": 8.9268712758563886, "cost": 44.63435637928194, "source": 8479, "target": 8453, "topogeom": "(1,1,8691,2)", "od_flow": 101.8681 }, "geometry": { "type": "LineString", "coordinates": [ [ 651897.149023366509937, 5588097.315533434972167 ], [ 651895.439925101934932, 5588106.077269216068089 ] ] } },
{ "type": "Feature", "properties": { "impedance": 5.0, "id": 10450, "length": 9.1270827636052836, "cost": 45.635413818026421, "source": 7641, "target": 9722, "topogeom": "(1,1,10576,2)", "od_flow": 101.8681 }, "geometry": { "type": "LineString", "coordinates": [ [ 652217.453182776807807, 5587986.647111980244517 ], [ 652209.806048357742839, 5587991.629578733816743 ] ] } },
{ "type": "Feature", "properties": { "impedance": 1.0, "id": 17753, "length": 40.685508557489023, "cost": 40.685508557489023, "source": 12806, "target": 12821, "topogeom": "(1,1,17804,2)", "od_flow": 101.8681 }, "geometry": { "type": "LineString", "coordinates": [ [ 651324.203206168254837, 5588119.498780915513635 ], [ 651284.24951794068329, 5588111.816762717440724 ] ] } },
{ "type": "Feature", "properties": { "impedance": 2.0, "id": 10994, "length": 10.767214604715278, "cost": 21.534429209430556, "source": 9934, "target": 7674, "topogeom": "(1,1,11116,2)", "od_flow": 101.8681 }, "geometry": { "type": "LineString", "coordinates": [ [ 652293.378613096196204, 5588106.314647205173969 ], [ 652299.149021763587371, 5588115.405042914673686 ] ] } },
{ "type": "Feature", "properties": { "impedance": 1.0, "id": 23334, "length": 11.513885717558995, "cost": 11.513885717558995, "source": 14743, "target": 11943, "topogeom": "(1,1,23341,2)", "od_flow": 101.8681 }, "geometry": { "type": "LineString", "coordinates": [ [ 652594.466224822914228, 5588117.247530432417989 ], [ 652605.687798560829833, 5588114.669576367363334 ] ] } },
{ "type": "Feature", "properties": { "impedance": 1.0, "id": 18357, "length": 57.689006265697188, "cost": 57.689006265697188, "source": 13103, "target": 13041, "topogeom": "(1,1,18406,2)", "od_flow": 47.8633 }, "geometry": { "type": "LineString", "coordinates": [ [ 652964.870713402633555, 5588010.866572498343885 ], [ 652907.621236595558003, 5588017.974233804270625 ] ] } },
{ "type": "Feature", "properties": { "impedance": 2.0, "id": 8473, "length": 15.001194321246816, "cost": 30.002388642493631, "source": 8425, "target": 8424, "topogeom": "(1,1,8629,2)", "od_flow": 101.8681 }, "geometry": { "type": "LineString", "coordinates": [ [ 651526.308165977708995, 5588092.652058119885623 ], [ 651540.990146749187261, 5588095.730251045897603 ] ] } },
{ "type": "Feature", "properties": { "impedance": 2.0, "id": 8503, "length": 14.967415412694193, "cost": 29.934830825388385, "source": 8458, "target": 8430, "topogeom": "(1,1,8659,2)", "od_flow": 101.8681 }, "geometry": { "type": "LineString", "coordinates": [ [ 651807.879454455338418, 5588221.180426625534892 ], [ 651822.475000956561416, 5588224.496078366413713 ] ] } },
{ "type": "Feature", "properties": { "impedance": 2.0, "id": 7703, "length": 38.91773650993553, "cost": 77.83547301987106, "source": 7912, "target": 7915, "topogeom": "(1,1,7864,2)", "od_flow": 253.763 }, "geometry": { "type": "LineString", "coordinates": [ [ 653039.643253730493598, 5587757.46208418160677 ], [ 653025.949832976330072, 5587793.891199503093958 ] ] } },
{ "type": "Feature", "properties": { "impedance": 1.0, "id": 16016, "length": 51.275749080401525, "cost": 51.275749080401525, "source": 11942, "target": 11944, "topogeom": "(1,1,16067,2)", "od_flow": 101.8681 }, "geometry": { "type": "LineString", "coordinates": [ [ 652635.526473753037862, 5588107.800357983447611 ], [ 652668.889935049577616, 5588096.985328929498792 ], [ 652683.820615576347336, 5588090.691071073524654 ] ] } },
{ "type": "Feature", "properties": { "impedance": 5.0, "id": 10886, "length": 2.3954641201611664, "cost": 11.977320600805832, "source": 9911, "target": 8490, "topogeom": "(1,1,11008,2)", "od_flow": 101.8681 }, "geometry": { "type": "LineString", "coordinates": [ [ 651403.696523077902384, 5588005.397404169663787 ], [ 651404.326967678382061, 5588003.086389683187008 ] ] } },
{ "type": "Feature", "properties": { "impedance": 5.0, "id": 8498, "length": 6.0732450584594684, "cost": 30.366225292297344, "source": 8452, "target": 8453, "topogeom": "(1,1,8654,2)", "od_flow": 101.8681 }, "geometry": { "type": "LineString", "coordinates": [ [ 651894.229487379547209, 5588112.028667880222201 ], [ 651894.800479708239436, 5588109.221314015798271 ], [ 651895.439925101934932, 5588106.077269216068089 ] ] } },
{ "type": "Feature", "properties": { "impedance": 5.0, "id": 9385, "length": 113.01793975066312, "cost": 565.08969875331559, "source": 9059, "target": 8973, "topogeom": "(1,1,9526,2)", "od_flow": 101.8681 }, "geometry": { "type": "LineString", "coordinates": [ [ 652124.450158695690334, 5588044.073408415541053 ], [ 652073.352032708236948, 5588077.324682091362774 ], [ 652050.878461226238869, 5588090.430124577134848 ], [ 652026.512144887819886, 5588099.608963622711599 ] ] } },
{ "type": "Feature", "properties": { "impedance": 1.0, "id": 16704, "length": 4.2576162809436617, "cost": 4.2576162809436617, "source": 12278, "target": 12279, "topogeom": "(1,1,16755,2)", "od_flow": 54.0048 }, "geometry": { "type": "LineString", "coordinates": [ [ 652896.126763536129147, 5587967.069472098723054 ], [ 652896.587991981883533, 5587971.302032165229321 ] ] } },
{ "type": "Feature", "properties": { "impedance": 1.0, "id": 21423, "length": 23.11628300807827, "cost": 23.11628300807827, "source": 11642, "target": 10058, "topogeom": "(1,1,21446,2)", "od_flow": 101.8681 }, "geometry": { "type": "LineString", "coordinates": [ [ 652340.412990163080394, 5588109.29774600174278 ], [ 652321.004861158900894, 5588121.855097182095051 ] ] } },
{ "type": "Feature", "properties": { "impedance": 5.0, "id": 8566, "length": 15.003718653396852, "cost": 75.018593266984254, "source": 45, "target": 46, "topogeom": "(1,1,63,2)", "od_flow": 101.8681 }, "geometry": { "type": "LineString", "coordinates": [ [ 651247.790071286610328, 5588104.650614432990551 ], [ 651233.085591506911442, 5588101.669029646553099 ] ] } }
]
}
